[{"OBJECT_NAME":"STARLINK-32878","OBJECT_ID":"2025-024P","EPOCH":"2026-03-10T01:50:35.588256","MEAN_MOTION":15.27590602,"ECCENTRICITY":0.00014636,"INCLINATION":43.002,"RA_OF_ASC_NODE":323.3123,"ARG_OF_PERICENTER":278.7706,"MEAN_ANOMALY":81.298,"EPHEMERIS_TYPE":0,"CLASSIFICATION_TYPE":"U","NORAD_CAT_ID":62892,"ELEMENT_SET_NO":999,"REV_AT_EPOCH":6232,"BSTAR":0.00116022,"MEAN_MOTION_DOT":0.00031813,"MEAN_MOTION_DDOT":0},{"OBJECT_NAME":"STARLINK-32892","OBJECT_ID":"2025-024Q","EPOCH":"2026-03-10T01:56:08.153088","MEAN_MOTION":15.27594644,"ECCENTRICITY":0.00023712,"INCLINATION":43.0051,"RA_OF_ASC_NODE":323.3352,"ARG_OF_PERICENTER":251.0358,"MEAN_ANOMALY":109.0237,"EPHEMERIS_TYPE":0,"CLASSIFICATION_TYPE":"U","NORAD_CAT_ID":62893,"ELEMENT_SET_NO":999,"REV_AT_EPOCH":6232,"BSTAR":0.00096844531,"MEAN_MOTION_DOT":0.00026496,"MEAN_MOTION_DDOT":0},{"OBJECT_NAME":"STARLINK-32909","OBJECT_ID":"2025-024R","EPOCH":"2026-03-10T02:05:24.311616","MEAN_MOTION":15.27595798,"ECCENTRICITY":8.756e-5,"INCLINATION":43.0014,"RA_OF_ASC_NODE":323.3858,"ARG_OF_PERICENTER":330.9384,"MEAN_ANOMALY":29.1419,"EPHEMERIS_TYPE":0,"CLASSIFICATION_TYPE":"U","NORAD_CAT_ID":62894,"ELEMENT_SET_NO":999,"REV_AT_EPOCH":6232,"BSTAR":0.0012866817,"MEAN_MOTION_DOT":0.00035331,"MEAN_MOTION_DDOT":0},{"OBJECT_NAME":"STARLINK-32901","OBJECT_ID":"2025-024S","EPOCH":"2026-03-10T02:58:50.537856","MEAN_MOTION":15.27585799,"ECCENTRICITY":0.00014363,"INCLINATION":43.0016,"RA_OF_ASC_NODE":322.7988,"ARG_OF_PERICENTER":269.32,"MEAN_ANOMALY":90.7487,"EPHEMERIS_TYPE":0,"CLASSIFICATION_TYPE":"U","NORAD_CAT_ID":62895,"ELEMENT_SET_NO":999,"REV_AT_EPOCH":6233,"BSTAR":0.0014410364,"MEAN_MOTION_DOT":0.00039612,"MEAN_MOTION_DDOT":0},{"OBJECT_NAME":"STARLINK-32890","OBJECT_ID":"2025-024T","EPOCH":"2026-03-10T10:07:03.833760","MEAN_MOTION":15.275863,"ECCENTRICITY":0.0001131,"INCLINATION":43.0044,"RA_OF_ASC_NODE":320.7308,"ARG_OF_PERICENTER":273.4762,"MEAN_ANOMALY":86.596,"EPHEMERIS_TYPE":0,"CLASSIFICATION_TYPE":"U","NORAD_CAT_ID":62896,"ELEMENT_SET_NO":999,"REV_AT_EPOCH":6238,"BSTAR":0.0012374,"MEAN_MOTION_DOT":0.00033952,"MEAN_MOTION_DDOT":0},{"OBJECT_NAME":"STARLINK-32893","OBJECT_ID":"2025-024U","EPOCH":"2026-03-10T02:32:56.256288","MEAN_MOTION":15.27606239,"ECCENTRICITY":0.00012531,"INCLINATION":42.9986,"RA_OF_ASC_NODE":322.6688,"ARG_OF_PERICENTER":309.4489,"MEAN_ANOMALY":50.6252,"EPHEMERIS_TYPE":0,"CLASSIFICATION_TYPE":"U","NORAD_CAT_ID":62897,"ELEMENT_SET_NO":999,"REV_AT_EPOCH":6233,"BSTAR":0.0013516365,"MEAN_MOTION_DOT":0.00037149,"MEAN_MOTION_DDOT":0},{"OBJECT_NAME":"STARLINK-32902","OBJECT_ID":"2025-024V","EPOCH":"2026-03-10T00:53:14.849952","MEAN_MOTION":15.27587372,"ECCENTRICITY":0.00017658,"INCLINATION":43.0014,"RA_OF_ASC_NODE":323.002,"ARG_OF_PERICENTER":345.0121,"MEAN_ANOMALY":15.0678,"EPHEMERIS_TYPE":0,"CLASSIFICATION_TYPE":"U","NORAD_CAT_ID":62898,"ELEMENT_SET_NO":999,"REV_AT_EPOCH":6232,"BSTAR":0.0011522947,"MEAN_MOTION_DOT":0.0003159,"MEAN_MOTION_DDOT":0},{"OBJECT_NAME":"STARLINK-32661","OBJECT_ID":"2025-024W","EPOCH":"2026-03-10T03:04:23.188224","MEAN_MOTION":15.27592762,"ECCENTRICITY":0.00018917,"INCLINATION":43.0017,"RA_OF_ASC_NODE":322.8283,"ARG_OF_PERICENTER":252.0801,"MEAN_ANOMALY":107.9845,"EPHEMERIS_TYPE":0,"CLASSIFICATION_TYPE":"U","NORAD_CAT_ID":62899,"ELEMENT_SET_NO":999,"REV_AT_EPOCH":6233,"BSTAR":0.0015750813,"MEAN_MOTION_DOT":0.00043353,"MEAN_MOTION_DDOT":0},{"OBJECT_NAME":"STARLINK-11552 [DTC]","OBJECT_ID":"2025-027A","EPOCH":"2026-03-09T21:33:09.799776","MEAN_MOTION":15.70878829,"ECCENTRICITY":0.00011461,"INCLINATION":42.997,"RA_OF_ASC_NODE":346.5224,"ARG_OF_PERICENTER":205.897,"MEAN_ANOMALY":154.184,"EPHEMERIS_TYPE":0,"CLASSIFICATION_TYPE":"U","NORAD_CAT_ID":62907,"ELEMENT_SET_NO":999,"REV_AT_EPOCH":6322,"BSTAR":0.0018738721,"MEAN_MOTION_DOT":0.00247703,"MEAN_MOTION_DDOT":0},{"OBJECT_NAME":"STARLINK-11561 [DTC]","OBJECT_ID":"2025-027B","EPOCH":"2026-03-10T03:01:10.759008","MEAN_MOTION":15.7087468,"ECCENTRICITY":0.00015595,"INCLINATION":43.0005,"RA_OF_ASC_NODE":344.7748,"ARG_OF_PERICENTER":302.1407,"MEAN_ANOMALY":57.9309,"EPHEMERIS_TYPE":0,"CLASSIFICATION_TYPE":"U","NORAD_CAT_ID":62908,"ELEMENT_SET_NO":999,"REV_AT_EPOCH":6322,"BSTAR":0.0019176275,"MEAN_MOTION_DOT":0.00253635,"MEAN_MOTION_DDOT":0},{"OBJECT_NAME":"STARLINK-11567 [DTC]","OBJECT_ID":"2025-027C","EPOCH":"2026-03-10T04:02:20.683680","MEAN_MOTION":15.71075962,"ECCENTRICITY":0.00012312,"INCLINATION":42.9991,"RA_OF_ASC_NODE":345.1164,"ARG_OF_PERICENTER":254.9627,"MEAN_ANOMALY":105.1105,"EPHEMERIS_TYPE":0,"CLASSIFICATION_TYPE":"U","NORAD_CAT_ID":62909,"ELEMENT_SET_NO":999,"REV_AT_EPOCH":6322,"BSTAR":0.0021481978,"MEAN_MOTION_DOT":0.00287795,"MEAN_MOTION_DDOT":0},{"OBJECT_NAME":"STARLINK-11569 [DTC]","OBJECT_ID":"2025-027D","EPOCH":"2026-03-10T03:16:27.686784","MEAN_MOTION":15.71146952,"ECCENTRICITY":0.00041496,"INCLINATION":43.0002,"RA_OF_ASC_NODE":344.8594,"ARG_OF_PERICENTER":269.8511,"MEAN_ANOMALY":90.1881,"EPHEMERIS_TYPE":0,"CLASSIFICATION_TYPE":"U","NORAD_CAT_ID":62910,"ELEMENT_SET_NO":999,"REV_AT_EPOCH":6322,"BSTAR":0.002919466,"MEAN_MOTION_DOT":0.00397785,"MEAN_MOTION_DDOT":0},{"OBJECT_NAME":"STARLINK-11537 [DTC]","OBJECT_ID":"2025-027E","EPOCH":"2026-03-10T03:31:45.540768","MEAN_MOTION":15.7109402,"ECCENTRICITY":0.00028499,"INCLINATION":42.9993,"RA_OF_ASC_NODE":344.9447,"ARG_OF_PERICENTER":277.4436,"MEAN_ANOMALY":82.6108,"EPHEMERIS_TYPE":0,"CLASSIFICATION_TYPE":"U","NORAD_CAT_ID":62911,"ELEMENT_SET_NO":999,"REV_AT_EPOCH":6326,"BSTAR":0.0027293704,"MEAN_MOTION_DOT":0.00369729,"MEAN_MOTION_DDOT":0},{"OBJECT_NAME":"STARLINK-11565 [DTC]","OBJECT_ID":"2025-027F","EPOCH":"2026-03-10T04:17:26.655936","MEAN_MOTION":15.70894502,"ECCENTRICITY":0.00014018,"INCLINATION":42.9985,"RA_OF_ASC_NODE":344.3077,"ARG_OF_PERICENTER":284.1028,"MEAN_ANOMALY":75.9684,"EPHEMERIS_TYPE":0,"CLASSIFICATION_TYPE":"U","NORAD_CAT_ID":62912,"ELEMENT_SET_NO":999,"REV_AT_EPOCH":6323,"BSTAR":0.0017476407,"MEAN_MOTION_DOT":0.00230659,"MEAN_MOTION_DDOT":0},{"OBJECT_NAME":"STARLINK-11564 [DTC]","OBJECT_ID":"2025-027G","EPOCH":"2026-03-10T00:43:55.597440","MEAN_MOTION":15.71036645,"ECCENTRICITY":0.00020874,"INCLINATION":43,"RA_OF_ASC_NODE":345.7957,"ARG_OF_PERICENTER":236.5564,"MEAN_ANOMALY":123.5104,"EPHEMERIS_TYPE":0,"CLASSIFICATION_TYPE":"U","NORAD_CAT_ID":62913,"ELEMENT_SET_NO":999,"REV_AT_EPOCH":6320,"BSTAR":0.0018628943,"MEAN_MOTION_DOT":0.00247895,"MEAN_MOTION_DDOT":0},{"OBJECT_NAME":"STARLINK-11566 [DTC]","OBJECT_ID":"2025-027H","EPOCH":"2026-03-10T02:23:08.082240","MEAN_MOTION":15.70844547,"ECCENTRICITY":0.00016978,"INCLINATION":43.0007,"RA_OF_ASC_NODE":345.4588,"ARG_OF_PERICENTER":274.6812,"MEAN_ANOMALY":85.3862,"EPHEMERIS_TYPE":0,"CLASSIFICATION_TYPE":"U","NORAD_CAT_ID":62914,"ELEMENT_SET_NO":999,"REV_AT_EPOCH":6325,"BSTAR":0.00034458359,"MEAN_MOTION_DOT":0.00044009,"MEAN_MOTION_DDOT":0}]
