STARLINK-32878          
1 62892U 25024P   26069.07680079  .00031813  00000+0  11602-2 0  9997
2 62892  43.0020 323.3123 0001463 278.7706  81.2980 15.27590602 62324
STARLINK-32892          
1 62893U 25024Q   26069.08064992  .00026496  00000+0  96845-3 0  9993
2 62893  43.0051 323.3352 0002371 251.0358 109.0237 15.27594644 62323
STARLINK-32909          
1 62894U 25024R   26069.08708694  .00035331  00000+0  12867-2 0  9997
2 62894  43.0014 323.3858 0000875 330.9384  29.1419 15.27595798 62322
STARLINK-32901          
1 62895U 25024S   26069.12419604  .00039612  00000+0  14410-2 0  9995
2 62895  43.0016 322.7988 0001436 269.3200  90.7487 15.27585799 62338
STARLINK-32890          
1 62896U 25024T   26069.42157215  .00033952  00000+0  12374-2 0  9994
2 62896  43.0044 320.7308 0001131 273.4762  86.5960 15.27586300 62388
STARLINK-32893          
1 62897U 25024U   26069.10620667  .00037149  00000+0  13516-2 0  9997
2 62897  42.9986 322.6688 0001253 309.4489  50.6252 15.27606239 62330
STARLINK-32902          
1 62898U 25024V   26069.03697743  .00031590  00000+0  11523-2 0  9999
2 62898  43.0014 323.0020 0001765 345.0121  15.0678 15.27587372 62329
STARLINK-32661          
1 62899U 25024W   26069.12804616  .00043353  00000+0  15751-2 0  9996
2 62899  43.0017 322.8283 0001891 252.0801 107.9845 15.27592762 62330
STARLINK-11552 [DTC]    
1 62907U 25027A   26068.89803009  .00247703  00000+0  18739-2 0  9991
2 62907  42.9970 346.5224 0001146 205.8970 154.1840 15.70878829 63227
STARLINK-11561 [DTC]    
1 62908U 25027B   26069.12581897  .00253635  00000+0  19176-2 0  9994
2 62908  43.0005 344.7748 0001559 302.1407  57.9309 15.70874680 63225
STARLINK-11567 [DTC]    
1 62909U 25027C   26069.16829495  .00287795  00000+0  21482-2 0  9995
2 62909  42.9991 345.1164 0001231 254.9627 105.1105 15.71075962 63227
STARLINK-11569 [DTC]    
1 62910U 25027D   26069.13643156  .00397785  00000+0  29195-2 0  9992
2 62910  43.0002 344.8594 0004149 269.8511  90.1881 15.71146952 63227
STARLINK-11537 [DTC]    
1 62911U 25027E   26069.14705487  .00369729  00000+0  27294-2 0  9995
2 62911  42.9993 344.9447 0002849 277.4436  82.6108 15.71094020 63269
STARLINK-11565 [DTC]    
1 62912U 25027F   26069.17878074  .00230659  00000+0  17476-2 0  9992
2 62912  42.9985 344.3077 0001401 284.1028  75.9684 15.70894502 63232
STARLINK-11564 [DTC]    
1 62913U 25027G   26069.03050460  .00247895  00000+0  18629-2 0  9990
2 62913  43.0000 345.7957 0002087 236.5564 123.5104 15.71036645 63203
STARLINK-11566 [DTC]    
1 62914U 25027H   26069.09939910  .00044009  00000+0  34458-3 0  9994
2 62914  43.0007 345.4588 0001697 274.6812  85.3862 15.70844547 63251
